#dP2018  6 23  0  0  0.00000000     288   u+U UNDEF FIT  GFZ                    
## 2006 518400.00000000   300.00000000 58292 0.0000000000000                    
+   85   C01C03C04C05C06C07C08C09C10C11C12C13C14E01E02E03E04                    
+        E05E07E08E09E11E12E14E18E19E24E25E26E27E30E31G01G02                    
+        G03G05G06G07G08G09G10G11G12G13G14G15G16G17G18G19G21                    
+        G22G23G24G25G26G27G28G29G30G31G32J01R01R02R03R04R05                    
+        R07R08R09R10R11R13R14R15R16R17R18R19R20R21R22R23R24                    
+         00 00 00 00 00 00 00 00 00 00 00 00 00 00 00 00 00                    
++        10 10 10 10  9 10  9  9  8 10  8  8  6  5  6  8  5                    
++         9  6  7  7  6  8  6  5  7  8  5  6  7  6  6  5  5                    
++         5  8  5  6  5  5  6  7  8  6  8  5  8  5  8  6  7                    
++         6  5  5  5  9  5  6  7  6  7  6 10  9  7  9  8  7                    
++         6  7  6  6  6 10  8  7 10  8  6  9 10  6  5  6 10                    
++         0  0  0  0  0  0  0  0  0  0  0  0  0  0  0  0  0                    
%c M  cc GPS ccc cccc cccc cccc cccc ccccc ccccc ccccc ccccc                    
%c cc cc ccc ccc cccc cccc cccc cccc ccccc ccccc ccccc ccccc                    
%f  1.2500000  1.025000000  0.00000000000  0.000000000000000                    
%f  0.0000000  0.000000000  0.00000000000  0.000000000000000                    
%i    0    0    0    0      0      0      0      0         0                    
%i    0    0    0    0      0      0      0      0         0                    
/* PCV:IGS14_2000 OL/AL:FES2004  NONE     YN CLK:CoN ORB:CoN                    
/*     GeoForschungsZentrum Potsdam                                             
/*                                                                              
/*                                                                              
*  2018  6 23  5 20  0.00000000                                                 
PC01 -32249.670038  27126.142315    864.033795   -132.041499                    
PC03 -14883.296042  39437.041785   1005.452915    295.799604                    
PC04 -39595.718430  14494.403688    661.853050    -40.429643                    
PC05  21888.736133  36021.842865   -225.053902    348.307147                    
PC06 -14709.249577  20611.512779 -33472.612145     65.467494                    
PC07 -23967.873768  33191.192628   9108.783194     97.027373                    
PC08  -7613.777064  34160.547430  23752.513408    404.053543                    
PC09   1696.019659  25926.433061 -32958.524024    -13.197258                    
PC10  -9936.430269  34106.196029  22529.427848   -331.022322                    
PC11 -20346.196279 -17925.401204   6482.431483   -561.401788                    
PC12  -9208.345169 -23356.239559 -12037.720345    487.939438                    
PC13    717.670818  40428.626141  12384.911812   -388.581048                    
PC14 -20398.168392  -8489.072976  17140.444157    122.875901                    
PE01  22701.942029 -15407.376536  11121.124866   -374.718555                    
PE02 -22696.784096  15419.597464 -11104.513151     17.140628                    
PE03 -25921.819143   4814.243259 -13433.589543    -46.504659                    
PE04   8818.788435 -15470.236759  23657.772610    -60.644488                    
PE05 -27900.231127  -8704.368736   4701.126853    241.050237                    
PE07  13564.672882  17072.874159 -20004.324303     10.485747                    
PE08  -8647.022559  15401.776027 -23738.472191   6558.591400                    
PE09 -13672.612223 -16849.900201  20141.953294   6755.321827                    
PE11 -11249.175545 -27325.814861   1905.753916   1526.562550                    
PE12   2774.934460 -24541.747172 -16330.539160   4443.911181                    
PE14   5596.137770  18647.287973  13617.631657   6562.569274                    
PE18  -1340.517428 -24062.514468 -21606.418077   6112.290122                    
PE19  26827.108522  -3596.937492  11987.823441     23.530760                    
PE24  -2515.192657 -19409.281093 -22216.016651   6638.524353                    
PE25 -17332.541343  -3529.903366 -23729.370861   1506.039310                    
PE26  18296.159852  14296.416327 -18358.792720   5790.772360                    
PE27   1809.125305  19893.838447  21840.573482    608.574016                    
PE30 -14362.308319  24639.727136   7911.854086   5735.952738                    
PE31  14798.322239 -24626.427777  -7151.559284   1023.150385                    
PG01 -13190.900009  14658.313073  17490.171441    -58.886183                    
PG02  14067.619782   9372.479340 -19984.691413     78.003409                    
PG03 -22601.918977  13458.452899  -3437.083466     93.899082                    
PG05  22107.733333    865.422184 -14952.730914     -5.710258                    
PG06   6941.868220  22316.039858 -12563.124552    393.703902                    
PG07  -5682.460389  25224.582689  -4652.427053    170.743958                    
PG08 -21609.933908  -1633.763756  15501.470233   -105.732021                    
PG09  -4099.637398  15436.351347 -21246.977265    514.514126                    
PG10  -2856.624563 -15322.491505  21533.118602    188.588169                    
PG11 -13078.545123  10311.251875  20155.406123   -732.890244                    
PG12  24579.305320  -9780.500165    169.111061    325.618162                    
PG13  22262.201084  10754.035167   9602.865877    -93.215273                    
PG14 -18627.226242 -18686.640971   4090.995337    -97.471938                    
PG15  21095.043367  -1832.753571  16046.604711   -352.127748                    
PG16 -21483.690799  -2971.908584 -15771.768227     20.433609                    
PG17  12093.329053  20094.595442  12968.047434    -85.476031                    
PG18 -15003.526095   5551.447078  20711.138985     25.003125                    
PG19  17934.990640  18897.054991   4385.184546   -426.220931                    
PG21   1170.779652 -26507.858993   -604.500403   -377.577695                    
PG22 -24466.033945   8978.503507   5322.910217   -434.928576                    
PG23 -15872.854961   6850.885524 -19977.253017   -215.510421                    
PG24  14374.800950 -11012.129629  19217.297273    -51.578485                    
PG25  16230.202962 -16985.336859 -12342.773977   -605.173648                    
PG26 -13468.438361  -9676.576003 -20784.333098   -106.711118                    
PG27 -23406.928136 -11747.017741   5117.890252    364.711021                    
PG28  -1421.540882  15972.365387  21803.845714    725.837266                    
PG29   6856.660066 -13216.093157 -22020.690479    427.537642                    
PG30    449.661726  25954.102409   5197.054130     59.228977                    
PG31  -7636.651665 -20896.347563 -14148.289554    112.683722                    
PG32 -12827.155061 -19515.358574  12775.376123   -489.079452                    
PJ01 -34613.433526  20414.794699  -7985.314948   -208.287269                    
PR01  -1428.813331  11104.043963 -22909.968135     28.026422                    
PR02  18735.551153   7527.434824 -15512.479920    316.149205                    
PR03  25465.260057   -315.569546   1047.312188    135.731568                    
PR04  16941.514544  -8135.271594  17262.342831    265.821879                    
PR05  -1010.275723 -11107.485106  22939.182658    -28.785862                    
PR07 -25484.506540    438.712152  -1350.852626    -40.734852                    
PR08 -17546.945499   7839.875396 -16715.245905     22.570468                    
PR09  -6752.062875  -9869.317583 -22527.901804     22.597739                    
PR10 -14751.157486   6988.982412 -19590.897924     26.549159                    
PR11 -14704.781642  20298.129099  -4580.902406    -32.338548                    
PR13   6717.533820   9572.793243  22648.323971    -11.749771                    
PR14  14891.180298  -6884.381556  19549.359913     28.401687                    
PR15  15590.616381 -18188.568154   8631.997936    -12.131400                    
PR16   5898.141904 -21718.107693 -11928.777624     95.457713                    
PR17  14348.125696   6785.747200 -19975.262948    142.315639                    
PR18   6213.739133 -10025.914579 -22616.480513    200.264169                    
PR19  -5012.218955 -21558.240860 -12686.911858    -55.261162                    
PR20 -13978.921109 -20508.222346   6006.798546   -342.634574                    
PR21 -14178.246328  -6420.093764  20198.890191     10.549689                    
PR22  -4995.239579  11656.406704  22106.683858    -53.391606                    
PR23   7785.141622  22507.869636   9117.088033    161.388565                    
PR24  14589.642433  19711.515339  -7016.079837   -167.985278                    
EOF                                     
